{
  "type": "FeatureCollection",
  "features": [
    {
      "type": "Feature",
      "properties": {
        "norad_id": 66630,
        "name": "STARLINK-35949",
        "group": "last-30-days",
        "lat": 52.944047549078434,
        "lon": -111.45404162693558,
        "alt_km": 411.1650996640865,
        "timestamp": "2025-12-20T03:42:46.118912+00:00",
        "meta_object_name": "STARLINK-35949",
        "meta_object_id": "2025-271P",
        "meta_epoch": "2025-12-19T07:10:57.239904",
        "meta_mean_motion": 15.4928529,
        "meta_eccentricity": 3.52e-05,
        "meta_inclination": 53.1593,
        "meta_ra_of_asc_node": 155.8154,
        "meta_arg_of_pericenter": 144.7691,
        "meta_mean_anomaly": 215.3341,
        "meta_ephemeris_type": 0,
        "meta_classification_type": "U",
        "meta_norad_cat_id": 66630,
        "meta_element_set_no": 999,
        "meta_rev_at_epoch": 522,
        "meta_bstar": 0.0013858,
        "meta_mean_motion_dot": 0.00077326,
        "meta_mean_motion_ddot": 0,
        "tle_line1": "1 66630U 25271P   25353.29927361  .00077326  00000+0  13858-2 0  9996",
        "tle_line2": "2 66630  53.1593 155.8154 0000352 144.7691 215.3341 15.49285290  5223"
      },
      "geometry": {
        "type": "Point",
        "coordinates": [
          -111.45404162693558,
          52.944047549078434
        ]
      }
    },
    {
      "type": "Feature",
      "properties": {
        "norad_id": 66631,
        "name": "STARLINK-35965",
        "group": "last-30-days",
        "lat": 53.13150657318008,
        "lon": -119.64433661145539,
        "alt_km": 422.19086757793957,
        "timestamp": "2025-12-20T03:42:46.118923+00:00",
        "meta_object_name": "STARLINK-35965",
        "meta_object_id": "2025-271Q",
        "meta_epoch": "2025-12-19T20:00:01.999008",
        "meta_mean_motion": 15.46051813,
        "meta_eccentricity": 8.91e-05,
        "meta_inclination": 53.1591,
        "meta_ra_of_asc_node": 153.2665,
        "meta_arg_of_pericenter": 54.1514,
        "meta_mean_anomaly": 45.7753,
        "meta_ephemeris_type": 0,
        "meta_classification_type": "U",
        "meta_norad_cat_id": 66631,
        "meta_element_set_no": 999,
        "meta_rev_at_epoch": 538,
        "meta_bstar": -0.01669,
        "meta_mean_motion_dot": -0.00763247,
        "meta_mean_motion_ddot": 0,
        "tle_line1": "1 66631U 25271Q   25353.83335647 -.00763247  00000+0 -16690-1 0  9999",
        "tle_line2": "2 66631  53.1591 153.2665 0000891  54.1514  45.7753 15.46051813  5385"
      },
      "geometry": {
        "type": "Point",
        "coordinates": [
          -119.64433661145539,
          53.13150657318008
        ]
      }
    },
    {
      "type": "Feature",
      "properties": {
        "norad_id": 66632,
        "name": "STARLINK-35973",
        "group": "last-30-days",
        "lat": -53.106514906159056,
        "lon": 64.93201240324612,
        "alt_km": 452.58031829934407,
        "timestamp": "2025-12-20T03:42:46.118933+00:00",
        "meta_object_name": "STARLINK-35973",
        "meta_object_id": "2025-271R",
        "meta_epoch": "2025-12-19T18:44:52.278432",
        "meta_mean_motion": 15.39637359,
        "meta_eccentricity": 9.83e-05,
        "meta_inclination": 53.1599,
        "meta_ra_of_asc_node": 153.8489,
        "meta_arg_of_pericenter": 75.4861,
        "meta_mean_anomaly": 284.6253,
        "meta_ephemeris_type": 0,
        "meta_classification_type": "U",
        "meta_norad_cat_id": 66632,
        "meta_element_set_no": 999,
        "meta_rev_at_epoch": 525,
        "meta_bstar": 0.00082132,
        "meta_mean_motion_dot": 0.00032612,
        "meta_mean_motion_ddot": 0,
        "tle_line1": "1 66632U 25271R   25353.78116063  .00032612  00000+0  82132-3 0  9992",
        "tle_line2": "2 66632  53.1599 153.8489 0000983  75.4861 284.6253 15.39637359  5259"
      },
      "geometry": {
        "type": "Point",
        "coordinates": [
          64.93201240324612,
          -53.106514906159056
        ]
      }
    },
    {
      "type": "Feature",
      "properties": {
        "norad_id": 66633,
        "name": "STARLINK-35948",
        "group": "last-30-days",
        "lat": -52.99590358797218,
        "lon": 67.94379965963417,
        "alt_km": 452.6550563923993,
        "timestamp": "2025-12-20T03:42:46.118943+00:00",
        "meta_object_name": "STARLINK-35948",
        "meta_object_id": "2025-271S",
        "meta_epoch": "2025-12-19T17:10:55.246080",
        "meta_mean_motion": 15.39629537,
        "meta_eccentricity": 0.0001044,
        "meta_inclination": 53.1596,
        "meta_ra_of_asc_node": 154.1516,
        "meta_arg_of_pericenter": 81.5844,
        "meta_mean_anomaly": 278.5279,
        "meta_ephemeris_type": 0,
        "meta_classification_type": "U",
        "meta_norad_cat_id": 66633,
        "meta_element_set_no": 999,
        "meta_rev_at_epoch": 528,
        "meta_bstar": 0.00067904,
        "meta_mean_motion_dot": 0.00026866,
        "meta_mean_motion_ddot": 0,
        "tle_line1": "1 66633U 25271S   25353.71591720  .00026866  00000+0  67904-3 0  9997",
        "tle_line2": "2 66633  53.1596 154.1516 0001044  81.5844 278.5279 15.39629537  5282"
      },
      "geometry": {
        "type": "Point",
        "coordinates": [
          67.94379965963417,
          -52.99590358797218
        ]
      }
    },
    {
      "type": "Feature",
      "properties": {
        "norad_id": 66634,
        "name": "STARLINK-35967",
        "group": "last-30-days",
        "lat": -44.31499063366663,
        "lon": 104.97989941996117,
        "alt_km": 452.18551745787045,
        "timestamp": "2025-12-20T03:42:46.118953+00:00",
        "meta_object_name": "STARLINK-35967",
        "meta_object_id": "2025-271T",
        "meta_epoch": "2025-12-19T20:00:01.999008",
        "meta_mean_motion": 15.39598007,
        "meta_eccentricity": 0.000112,
        "meta_inclination": 53.1605,
        "meta_ra_of_asc_node": 153.5477,
        "meta_arg_of_pericenter": 61.4743,
        "meta_mean_anomaly": 255.6775,
        "meta_ephemeris_type": 0,
        "meta_classification_type": "U",
        "meta_norad_cat_id": 66634,
        "meta_element_set_no": 999,
        "meta_rev_at_epoch": 531,
        "meta_bstar": 0.0011307,
        "meta_mean_motion_dot": 0.00045063,
        "meta_mean_motion_ddot": 0,
        "tle_line1": "1 66634U 25271T   25353.83335647  .00045063  00000+0  11307-2 0  9990",
        "tle_line2": "2 66634  53.1605 153.5477 0001120  61.4743 255.6775 15.39598007  5311"
      },
      "geometry": {
        "type": "Point",
        "coordinates": [
          104.97989941996117,
          -44.31499063366663
        ]
      }
    },
    {
      "type": "Feature",
      "properties": {
        "norad_id": 66635,
        "name": "STARLINK-35955",
        "group": "last-30-days",
        "lat": -7.483694486688156,
        "lon": 146.28000697170802,
        "alt_km": 449.07763328076453,
        "timestamp": "2025-12-20T03:42:46.118963+00:00",
        "meta_object_name": "STARLINK-35955",
        "meta_object_id": "2025-271U",
        "meta_epoch": "2025-12-19T20:00:01.999008",
        "meta_mean_motion": 15.39592464,
        "meta_eccentricity": 0.000135,
        "meta_inclination": 53.16,
        "meta_ra_of_asc_node": 153.4465,
        "meta_arg_of_pericenter": 81.3196,
        "meta_mean_anomaly": 287.3475,
        "meta_ephemeris_type": 0,
        "meta_classification_type": "U",
        "meta_norad_cat_id": 66635,
        "meta_element_set_no": 999,
        "meta_rev_at_epoch": 538,
        "meta_bstar": 0.0010912,
        "meta_mean_motion_dot": 0.00043455,
        "meta_mean_motion_ddot": 0,
        "tle_line1": "1 66635U 25271U   25353.83335647  .00043455  00000+0  10912-2 0  9995",
        "tle_line2": "2 66635  53.1600 153.4465 0001350  81.3196 287.3475 15.39592464  5388"
      },
      "geometry": {
        "type": "Point",
        "coordinates": [
          146.28000697170802,
          -7.483694486688156
        ]
      }
    },
    {
      "type": "Feature",
      "properties": {
        "norad_id": 66636,
        "name": "STARLINK-35968",
        "group": "last-30-days",
        "lat": -27.396524361404442,
        "lon": 129.11787664111242,
        "alt_km": 451.01072672129885,
        "timestamp": "2025-12-20T03:42:46.118977+00:00",
        "meta_object_name": "STARLINK-35968",
        "meta_object_id": "2025-271V",
        "meta_epoch": "2025-12-19T20:00:01.999008",
        "meta_mean_motion": 15.39595942,
        "meta_eccentricity": 7.89e-05,
        "meta_inclination": 53.1604,
        "meta_ra_of_asc_node": 153.4969,
        "meta_arg_of_pericenter": 67.7333,
        "meta_mean_anomaly": 275.1705,
        "meta_ephemeris_type": 0,
        "meta_classification_type": "U",
        "meta_norad_cat_id": 66636,
        "meta_element_set_no": 999,
        "meta_rev_at_epoch": 538,
        "meta_bstar": 0.0011015,
        "meta_mean_motion_dot": 0.00043879,
        "meta_mean_motion_ddot": 0,
        "tle_line1": "1 66636U 25271V   25353.83335647  .00043879  00000+0  11015-2 0  9991",
        "tle_line2": "2 66636  53.1604 153.4969 0000789  67.7333 275.1705 15.39595942  5383"
      },
      "geometry": {
        "type": "Point",
        "coordinates": [
          129.11787664111242,
          -27.396524361404442
        ]
      }
    }
  ]
}